{
  "type": "FeatureCollection",
  "features": [
    {
      "type": "Feature",
      "properties": {
        "norad_id": 37081,
        "name": "FENGYUN 1C DEB",
        "group": "fengyun-1c-debris",
        "lat": -23.828162049852736,
        "lon": 137.16486145367324,
        "alt_km": 685.3121759567211,
        "timestamp": "2025-12-06T20:37:56.361761+00:00",
        "meta_object_name": "FENGYUN 1C DEB",
        "meta_object_id": "1999-025EFR",
        "meta_epoch": "2025-12-04T16:05:13.028352",
        "meta_mean_motion": 14.13719832,
        "meta_eccentricity": 0.026348,
        "meta_inclination": 98.7084,
        "meta_ra_of_asc_node": 131.1485,
        "meta_arg_of_pericenter": 11.9086,
        "meta_mean_anomaly": 348.8157,
        "meta_ephemeris_type": 0,
        "meta_classification_type": "U",
        "meta_norad_cat_id": 37081,
        "meta_element_set_no": 999,
        "meta_rev_at_epoch": 58460,
        "meta_bstar": 0.0070093,
        "meta_mean_motion_dot": 0.00018467,
        "meta_mean_motion_ddot": 0,
        "tle_line1": "1 37081U 99025EFR 25338.67028968  .00018467  00000+0  70093-2 0  9997",
        "tle_line2": "2 37081  98.7084 131.1485 0263480  11.9086 348.8157 14.13719832584606"
      },
      "geometry": {
        "type": "Point",
        "coordinates": [
          137.16486145367324,
          -23.828162049852736
        ]
      }
    },
    {
      "type": "Feature",
      "properties": {
        "norad_id": 37400,
        "name": "FENGYUN 1C DEB",
        "group": "fengyun-1c-debris",
        "lat": 79.45732903651825,
        "lon": 55.474088727745986,
        "alt_km": 842.010473685491,
        "timestamp": "2025-12-06T20:37:56.361774+00:00",
        "meta_object_name": "FENGYUN 1C DEB",
        "meta_object_id": "1999-025EFS",
        "meta_epoch": "2025-12-04T18:50:54.791232",
        "meta_mean_motion": 13.63629843,
        "meta_eccentricity": 0.0401547,
        "meta_inclination": 98.8382,
        "meta_ra_of_asc_node": 176.8648,
        "meta_arg_of_pericenter": 157.4535,
        "meta_mean_anomaly": 204.4818,
        "meta_ephemeris_type": 0,
        "meta_classification_type": "U",
        "meta_norad_cat_id": 37400,
        "meta_element_set_no": 999,
        "meta_rev_at_epoch": 80085,
        "meta_bstar": 0.00081212736,
        "meta_mean_motion_dot": 1.073e-05,
        "meta_mean_motion_ddot": 0,
        "tle_line1": "1 37400U 99025EFS 25338.78535638  .00001073  00000+0  81213-3 0  9993",
        "tle_line2": "2 37400  98.8382 176.8648 0401547 157.4535 204.4818 13.63629843800858"
      },
      "geometry": {
        "type": "Point",
        "coordinates": [
          55.474088727745986,
          79.45732903651825
        ]
      }
    },
    {
      "type": "Feature",
      "properties": {
        "norad_id": 37404,
        "name": "FENGYUN 1C DEB",
        "group": "fengyun-1c-debris",
        "lat": -48.992982256180134,
        "lon": 154.0126554599085,
        "alt_km": 772.7389976937393,
        "timestamp": "2025-12-06T20:37:56.361784+00:00",
        "meta_object_name": "FENGYUN 1C DEB",
        "meta_object_id": "1999-025EFW",
        "meta_epoch": "2025-12-06T06:13:10.098624",
        "meta_mean_motion": 14.31608752,
        "meta_eccentricity": 0.00442248,
        "meta_inclination": 98.4521,
        "meta_ra_of_asc_node": 343.2745,
        "meta_arg_of_pericenter": 181.398,
        "meta_mean_anomaly": 194.592,
        "meta_ephemeris_type": 0,
        "meta_classification_type": "U",
        "meta_norad_cat_id": 37404,
        "meta_element_set_no": 999,
        "meta_rev_at_epoch": 82648,
        "meta_bstar": 0.001255997,
        "meta_mean_motion_dot": 3.339e-05,
        "meta_mean_motion_ddot": 0,
        "tle_line1": "1 37404U 99025EFW 25340.25914466  .00003339  00000+0  12560-2 0  9997",
        "tle_line2": "2 37404  98.4521 343.2745 0044224 181.3980 194.5920 14.31608752826488"
      },
      "geometry": {
        "type": "Point",
        "coordinates": [
          154.0126554599085,
          -48.992982256180134
        ]
      }
    },
    {
      "type": "Feature",
      "properties": {
        "norad_id": 37406,
        "name": "FENGYUN 1C DEB",
        "group": "fengyun-1c-debris",
        "lat": 9.201131212170036,
        "lon": -147.97245352517615,
        "alt_km": 871.8669806746366,
        "timestamp": "2025-12-06T20:37:56.361795+00:00",
        "meta_object_name": "FENGYUN 1C DEB",
        "meta_object_id": "1999-025EFY",
        "meta_epoch": "2025-12-05T09:32:26.852064",
        "meta_mean_motion": 14.04246973,
        "meta_eccentricity": 0.01501858,
        "meta_inclination": 98.4433,
        "meta_ra_of_asc_node": 212.0463,
        "meta_arg_of_pericenter": 287.347,
        "meta_mean_anomaly": 252.8818,
        "meta_ephemeris_type": 0,
        "meta_classification_type": "U",
        "meta_norad_cat_id": 37406,
        "meta_element_set_no": 999,
        "meta_rev_at_epoch": 63129,
        "meta_bstar": 0.0024216728,
        "meta_mean_motion_dot": 4.212e-05,
        "meta_mean_motion_ddot": 0,
        "tle_line1": "1 37406U 99025EFY 25339.39753301  .00004212  00000+0  24217-2 0  9994",
        "tle_line2": "2 37406  98.4433 212.0463 0150185 287.3470 252.8818 14.04246973631297"
      },
      "geometry": {
        "type": "Point",
        "coordinates": [
          -147.97245352517615,
          9.201131212170036
        ]
      }
    },
    {
      "type": "Feature",
      "properties": {
        "norad_id": 37415,
        "name": "FENGYUN 1C DEB",
        "group": "fengyun-1c-debris",
        "lat": 23.44021411954165,
        "lon": 85.31055266206468,
        "alt_km": 1274.558679760058,
        "timestamp": "2025-12-06T20:37:56.361808+00:00",
        "meta_object_name": "FENGYUN 1C DEB",
        "meta_object_id": "1999-025EGH",
        "meta_epoch": "2025-12-02T01:04:00.466176",
        "meta_mean_motion": 13.52075679,
        "meta_eccentricity": 0.02848718,
        "meta_inclination": 98.9818,
        "meta_ra_of_asc_node": 84.8777,
        "meta_arg_of_pericenter": 209.5506,
        "meta_mean_anomaly": 148.9269,
        "meta_ephemeris_type": 0,
        "meta_classification_type": "U",
        "meta_norad_cat_id": 37415,
        "meta_element_set_no": 999,
        "meta_rev_at_epoch": 62177,
        "meta_bstar": 0.00059758334,
        "meta_mean_motion_dot": 4.68e-06,
        "meta_mean_motion_ddot": 0,
        "tle_line1": "1 37415U 99025EGH 25336.04444984  .00000468  00000+0  59758-3 0  9995",
        "tle_line2": "2 37415  98.9818  84.8777 0284871 209.5506 148.9269 13.52075679621770"
      },
      "geometry": {
        "type": "Point",
        "coordinates": [
          85.31055266206468,
          23.44021411954165
        ]
      }
    },
    {
      "type": "Feature",
      "properties": {
        "norad_id": 37417,
        "name": "FENGYUN 1C DEB",
        "group": "fengyun-1c-debris",
        "lat": 74.74979069457491,
        "lon": -60.80268927053624,
        "alt_km": 914.3274446580208,
        "timestamp": "2025-12-06T20:37:56.361818+00:00",
        "meta_object_name": "FENGYUN 1C DEB",
        "meta_object_id": "1999-025EGK",
        "meta_epoch": "2025-12-06T04:54:23.476896",
        "meta_mean_motion": 14.07377699,
        "meta_eccentricity": 0.00780266,
        "meta_inclination": 98.7976,
        "meta_ra_of_asc_node": 333.1718,
        "meta_arg_of_pericenter": 279.2703,
        "meta_mean_anomaly": 79.9648,
        "meta_ephemeris_type": 0,
        "meta_classification_type": "U",
        "meta_norad_cat_id": 37417,
        "meta_element_set_no": 999,
        "meta_rev_at_epoch": 68258,
        "meta_bstar": 0.00061915605,
        "meta_mean_motion_dot": 1.026e-05,
        "meta_mean_motion_ddot": 0,
        "tle_line1": "1 37417U 99025EGK 25340.20443839  .00001026  00000+0  61916-3 0  9998",
        "tle_line2": "2 37417  98.7976 333.1718 0078026 279.2703  79.9648 14.07377699682584"
      },
      "geometry": {
        "type": "Point",
        "coordinates": [
          -60.80268927053624,
          74.74979069457491
        ]
      }
    },
    {
      "type": "Feature",
      "properties": {
        "norad_id": 37418,
        "name": "FENGYUN 1C DEB",
        "group": "fengyun-1c-debris",
        "lat": 76.1448385091381,
        "lon": -162.92641603456838,
        "alt_km": 1872.3416386179279,
        "timestamp": "2025-12-06T20:37:56.361829+00:00",
        "meta_object_name": "FENGYUN 1C DEB",
        "meta_object_id": "1999-025EGL",
        "meta_epoch": "2025-12-03T23:55:25.768992",
        "meta_mean_motion": 11.95103309,
        "meta_eccentricity": 0.10777187,
        "meta_inclination": 98.6131,
        "meta_ra_of_asc_node": 233.0769,
        "meta_arg_of_pericenter": 337.0843,
        "meta_mean_anomaly": 18.5361,
        "meta_ephemeris_type": 0,
        "meta_classification_type": "U",
        "meta_norad_cat_id": 37418,
        "meta_element_set_no": 999,
        "meta_rev_at_epoch": 49380,
        "meta_bstar": 0.0055527554,
        "meta_mean_motion_dot": 2.288e-05,
        "meta_mean_motion_ddot": 0,
        "tle_line1": "1 37418U 99025EGL 25337.99682603  .00002288  00000+0  55528-2 0  9997",
        "tle_line2": "2 37418  98.6131 233.0769 1077718 337.0843  18.5361 11.95103309493802"
      },
      "geometry": {
        "type": "Point",
        "coordinates": [
          -162.92641603456838,
          76.1448385091381
        ]
      }
    }
  ]
}